{
    "links": {
        "self": "http://www.neowsapp.com/rest/v1/neo/3568375?api_key=iIulBulltgU6a56xZRHN4H3l9WmuAYTsLGpBGhQ2"
    },
    "id": "3568375",
    "neo_reference_id": "3568375",
    "name": "(2011 MZ2)",
    "designation": "2011 MZ2",
    "nasa_jpl_url": "http://ssd.jpl.nasa.gov/sbdb.cgi?sstr=3568375",
    "absolute_magnitude_h": 25.8,
    "estimated_diameter": {
        "kilometers": {
            "estimated_diameter_min": 0.0183888672,
            "estimated_diameter_max": 0.0411187571
        },
        "meters": {
            "estimated_diameter_min": 18.388867207,
            "estimated_diameter_max": 41.1187571041
        },
        "miles": {
            "estimated_diameter_min": 0.0114263088,
            "estimated_diameter_max": 0.0255500032
        },
        "feet": {
            "estimated_diameter_min": 60.3309310875,
            "estimated_diameter_max": 134.9040630575
        }
    },
    "is_potentially_hazardous_asteroid": false,
    "close_approach_data": [
        {
            "close_approach_date": "1902-05-08",
            "close_approach_date_full": "1902-May-08 03:35",
            "epoch_date_close_approach": -2134931100000,
            "relative_velocity": {
                "kilometers_per_second": "14.8744161746",
                "kilometers_per_hour": "53547.8982285128",
                "miles_per_hour": "33272.5815409334"
            },
            "miss_distance": {
                "astronomical": "0.383204074",
                "lunar": "149.066384786",
                "kilometers": "57326513.24572238",
                "miles": "35621043.561153644"
            },
            "orbiting_body": "Earth"
        },
        {
            "close_approach_date": "2009-08-01",
            "close_approach_date_full": "2009-Aug-01 06:59",
            "epoch_date_close_approach": 1249109940000,
            "relative_velocity": {
                "kilometers_per_second": "12.207395465",
                "kilometers_per_hour": "43946.6236740983",
                "miles_per_hour": "27306.7229157196"
            },
            "miss_distance": {
                "astronomical": "0.2874627381",
                "lunar": "111.8230051209",
                "kilometers": "43003813.324127847",
                "miles": "26721330.5150524086"
            },
            "orbiting_body": "Earth"
        },
        {
            "close_approach_date": "2011-06-21",
            "close_approach_date_full": "2011-Jun-21 23:43",
            "epoch_date_close_approach": 1308699780000,
            "relative_velocity": {
                "kilometers_per_second": "4.7229488359",
                "kilometers_per_hour": "17002.615809218",
                "miles_per_hour": "10564.764251011"
            },
            "miss_distance": {
                "astronomical": "0.0421138533",
                "lunar": "16.3822889337",
                "kilometers": "6300142.751172471",
                "miles": "3914727.1772672598"
            },
            "orbiting_body": "Earth"
        },
        {
            "close_approach_date": "2013-05-13",
            "close_approach_date_full": "2013-May-13 03:49",
            "epoch_date_close_approach": 1368416940000,
            "relative_velocity": {
                "kilometers_per_second": "12.9695726937",
                "kilometers_per_hour": "46690.4616972955",
                "miles_per_hour": "29011.6371585223"
            },
            "miss_distance": {
                "astronomical": "0.316992548",
                "lunar": "123.310101172",
                "kilometers": "47421409.98667276",
                "miles": "29466297.795333688"
            },
            "orbiting_body": "Earth"
        }
    ],
    "orbital_data": {
        "orbit_id": "11",
        "orbit_determination_date": "2017-04-06 08:53:13",
        "first_observation_date": "2011-06-27",
        "last_observation_date": "2011-07-23",
        "data_arc_in_days": 26,
        "observations_used": 37,
        "orbit_uncertainty": "8",
        "minimum_orbit_intersection": ".0407878",
        "jupiter_tisserand_invariant": "4.367",
        "epoch_osculation": "2455743.5",
        "eccentricity": ".3229107658708504",
        "semi_major_axis": "1.560942039062996",
        "inclination": "4.492827880845305",
        "ascending_node_longitude": "275.5355637804454",
        "orbital_period": "712.3256655962399",
        "perihelion_distance": "1.056897049749157",
        "perihelion_argument": "355.1084867938182",
        "aphelion_distance": "2.064987028376835",
        "perihelion_time": "2455734.571568263555",
        "mean_anomaly": "4.512311686017631",
        "mean_motion": ".5053868158725802",
        "equinox": "J2000",
        "orbit_class": {
            "orbit_class_type": "AMO",
            "orbit_class_description": "Near-Earth asteroid orbits similar to that of 1221 Amor",
            "orbit_class_range": "1.017 AU < q (perihelion) < 1.3 AU"
        }
    },
    "is_sentry_object": false
}